IRIDIUM 159             
1 43578U 18061K   25281.41164904  .00000242  00000+0  79313-4 0  9994
2 43578  86.4020 161.9517 0002061  87.7410 272.4022 14.34218685377294
IRIDIUM 180             
1 43922U 19002A   25281.48091299  .00000014  00000+0 -20233-5 0  9992
2 43922  86.3912  98.8352 0002114  91.3209 268.8229 14.34217611352915
IRIDIUM 176             
1 43923U 19002B   25281.47457680  .00000513  00000+0  77501-4 0  9994
2 43923  86.6037  98.8182 0002804  77.4056 282.7475 14.72251988362218
IRIDIUM 168             
1 43924U 19002C   25281.47457126  .00000015  00000+0 -17937-5 0  9996
2 43924  86.3915  98.9082 0002054  88.5776 271.5655 14.34217363352896
IRIDIUM 173             
1 43925U 19002D   25281.46188556  .00000040  00000+0  71370-5 0  9992
2 43925  86.3909  98.8125 0002301  89.4814 270.6646 14.34217795352872
IRIDIUM 169             
1 43926U 19002E   25281.52991514  .00000433  00000+0  13493-3 0  9992
2 43926  86.4213 130.4259 0003364  76.6804 283.4770 14.38609644354043
IRIDIUM 172             
1 43927U 19002F   25281.52531046  .00000067  00000+0  16919-4 0  9993
2 43927  86.3912  98.7932 0002148  96.4951 263.6489 14.34217836352897
IRIDIUM 175             
1 43928U 19002G   25281.40178937  .00001679  00000+0  26232-3 0  9995
2 43928  86.1512  44.9168 0001944  69.5209 290.6216 14.72245178362190
